OBJECT_NAME,OBJECT_ID,EPOCH,MEAN_MOTION,ECCENTRICITY,INCLINATION,RA_OF_ASC_NODE,ARG_OF_PERICENTER,MEAN_ANOMALY,EPHEMERIS_TYPE,CLASSIFICATION_TYPE,NORAD_CAT_ID,ELEMENT_SET_NO,REV_AT_EPOCH,BSTAR,MEAN_MOTION_DOT,MEAN_MOTION_DDOT
GOES 14,2009-033A,2026-07-04T23:03:58.506912,1.00104012,.00021427,1.7327,82.8376,30.2434,287.2365,0,U,35491,999,676,0,-.332E-5,0
FM-5,2009-034A,2026-07-02T18:42:12.903264,1.00271535,.00009637,0.0343,275.0250,71.7322,128.4433,0,U,35493,999,4680,0,-.189E-5,0
TERRESTAR-1,2009-035A,2026-07-04T15:04:19.869600,1.00272514,.0002634,5.1878,48.7862,47.2368,301.6827,0,U,35496,999,6230,0,-.46E-6,0
COSMOS 2451,2009-036A,2026-07-04T21:51:46.354752,12.40870723,.00065265,82.4883,81.3650,162.9893,197.1406,0,U,35498,999,76984,.27049724E-3,.46E-6,0
COSMOS 2453,2009-036C,2026-07-04T22:58:12.633024,12.41519823,.00075069,82.4884,76.8650,120.6926,239.4894,0,U,35500,999,77018,.2414939E-3,.43E-6,0
DEIMOS-1,2009-041A,2026-07-04T22:57:59.736096,14.75257236,.00025218,97.7425,342.4155,106.6002,253.5485,0,U,35681,999,90950,.12603064E-3,.805E-5,0
DUBAISAT-1,2009-041B,2026-07-04T15:46:36.682464,14.75155703,.00107473,98.0075,318.7258,22.2616,337.9058,0,U,35682,999,90767,.20460577E-3,.1331E-4,0
UK-DMC 2,2009-041C,2026-07-04T22:03:01.434240,14.76081487,.00012964,97.8862,320.4538,98.6527,261.4830,0,U,35683,999,90918,.77602854E-4,.486E-5,0
APRIZESAT 4,2009-041D,2026-07-04T22:10:36.166080,14.83904708,.00419123,98.1407,261.5978,263.8399,95.8039,0,U,35684,999,91399,.12723417E-3,.1013E-4,0
NANOSAT 1B,2009-041E,2026-07-04T18:44:29.937984,14.93141985,.00505459,98.1189,305.0258,106.2622,254.4165,0,U,35685,999,91704,.24309216E-3,.2536E-4,0
APRIZESAT 3,2009-041F,2026-07-04T16:28:54.201216,14.96290082,.00617043,98.2081,339.7511,10.3583,349.8892,0,U,35686,999,91899,.15457801E-3,.1745E-4,0
ASIASAT 5,2009-042A,2026-07-04T22:55:14.344032,1.00270880,.0001581,0.0352,75.6513,8.4587,283.1678,0,U,35696,999,6188,0,-.294E-5,0
NAVSTAR 64 (USA 206),2009-043A,2026-07-04T07:27:52.871040,2.00553427,.00538025,56.2210,26.7798,83.9260,86.3327,0,U,35752,999,12370,0,-.59E-6,0
JCSAT-12 (JCSAT-RA),2009-044A,2026-07-04T23:04:13.482624,1.00270639,.00008996,0.0241,299.7799,250.0972,211.1798,0,U,35755,999,6178,0,-.315E-5,0
OPTUS D3,2009-044B,2026-07-02T18:08:46.110336,1.00273454,.00035194,0.8834,268.4529,194.0205,246.6503,0,U,35756,999,6172,0,-.134E-5,0
NIMIQ 5,2009-050A,2026-07-02T14:48:10.247328,1.00270300,.000296,0.0248,285.3738,168.5925,336.0220,0,U,35873,999,6149,0,-.246E-5,0
OCEANSAT-2,2009-051A,2026-07-04T22:16:25.567680,13.99658415,.00166427,98.2318,171.0086,183.3512,176.7546,0,U,35931,999,88181,-.11540724E-3,-.206E-5,0
SWISSCUBE,2009-051B,2026-07-04T11:28:26.837760,14.62517748,.00072179,98.4021,93.6669,148.5860,211.5774,0,U,35932,999,89168,.31098137E-3,.1528E-4,0
BEESAT-1,2009-051C,2026-07-04T00:25:02.099424,14.61748287,.00053974,98.3948,92.7981,160.6033,199.5374,0,U,35933,999,89164,.21141658E-3,.1005E-4,0
ITUPSAT1,2009-051E,2026-07-04T16:59:43.323648,14.60469280,.00073167,98.4031,92.6727,174.2685,185.8600,0,U,35935,999,89129,.2547061E-3,.1186E-4,0
AMAZONAS 2,2009-054A,2026-07-02T13:38:20.516064,1.00268849,.0003523,1.8530,82.8651,23.0075,307.2888,0,U,35942,999,6133,0,-.249E-5,0
COMSATBW-1,2009-054B,2026-07-04T21:33:25.205760,1.00272902,.00030209,0.0715,119.7412,348.3215,201.2183,0,U,35943,999,6148,0,.37E-6,0
WORLDVIEW-2 (WV-2),2009-055A,2026-07-04T21:47:49.795008,14.37905031,.00048199,98.4760,259.1160,155.6240,204.5176,0,U,35946,999,87819,.75070511E-4,.183E-5,0
DMSP 5D-3 F18 (USA 210),2009-057A,2026-07-04T21:22:39.454752,14.14907247,.00106054,98.9047,166.6220,195.0087,165.0773,0,U,35951,999,86209,.18995085E-3,.322E-5,0
NSS-12,2009-058A,2026-07-04T22:58:02.246016,1.00272689,.00046051,0.0585,277.5310,153.2141,253.7231,0,U,36032,999,6109,0,.84E-6,0
THOR 6,2009-058B,2026-07-04T20:43:41.136384,1.00271427,.00021356,0.0143,100.3687,25.9254,106.6462,0,U,36033,999,6118,0,.3E-7,0
SMOS,2009-059A,2026-07-04T06:50:58.280064,14.39782165,.00013014,98.4427,12.3699,86.9741,273.1596,0,U,36036,999,87591,.11087677E-3,.304E-5,0
PROBA-2,2009-059B,2026-07-04T18:40:37.386336,14.54870834,.00123297,98.2456,8.8874,222.3373,137.6873,0,U,36037,999,88408,.82400674E-4,.309E-5,0
POISK,2009-060A,2026-07-04T19:09:56.682144,15.48894567,.00067612,51.6303,212.9192,256.1012,103.9224,0,U,36086,999,59146,.18504104E-3,.9725E-4,0
SJ-11-01,2009-061A,2026-07-04T23:18:01.643040,14.63702597,.00103059,98.0062,166.4531,334.5461,110.0236,0,U,36088,999,88709,.58950786E-4,.261E-5,0
COSMOS 2455,2009-063A,2026-07-04T18:09:33.931008,13.97052363,.00034635,67.1457,210.1709,276.5651,83.5039,0,U,36095,999,84758,.31424309E-4,-.31E-6,0
